OBJECT_NAME,OBJECT_ID,EPOCH,MEAN_MOTION,ECCENTRICITY,INCLINATION,RA_OF_ASC_NODE,ARG_OF_PERICENTER,MEAN_ANOMALY,EPHEMERIS_TYPE,CLASSIFICATION_TYPE,NORAD_CAT_ID,ELEMENT_SET_NO,REV_AT_EPOCH,BSTAR,MEAN_MOTION_DOT,MEAN_MOTION_DDOT
STARLINK-5353,2023-099AU,2026-07-22T10:12:48.798720,15.27588125,.00006875,43.0000,200.9070,283.8404,76.2372,0,U,57370,999,16680,.23060601E-4,.373E-5,0
STARLINK-6032,2023-099AV,2026-07-22T03:30:18.211968,15.27579058,.00010617,43.0018,202.2560,275.2077,84.8654,0,U,57371,999,16676,.27178255E-4,.486E-5,0
STARLINK-5975,2023-099AW,2026-07-22T08:55:19.451424,15.27578771,.00008991,43.0029,201.3518,258.6981,101.3770,0,U,57372,999,16679,.2214974E-5,-.201E-5,0
STARLINK-6370,2023-099AX,2026-07-21T23:21:08.015616,15.27578557,.00013074,43.0016,203.5251,299.6590,60.4131,0,U,57373,999,16673,-.16758321E-4,-.723E-5,0
STARLINK-6369,2023-099AY,2026-07-22T07:09:39.485952,15.27576015,.00011052,43.0009,183.5567,271.0202,89.0523,0,U,57374,999,16699,.35375384E-4,.711E-5,0
STARLINK-6363,2023-099AZ,2026-07-21T23:19:17.046048,15.27580460,.00009731,43.0009,203.5189,273.7131,86.3609,0,U,57375,999,16673,.28723699E-4,.529E-5,0
STARLINK-6367,2023-099BA,2026-07-22T06:37:28.615296,15.27592342,.00002637,42.9950,198.1010,218.0335,142.0498,0,U,57376,999,16682,.72496318E-3,.19748E-3,0
STARLINK-6358,2023-099BB,2026-07-21T17:11:12.752448,15.27591812,.00010558,43.0011,208.4687,282.6141,77.4593,0,U,57377,999,16664,.7140356E-4,.1704E-4,0
STARLINK-6364,2023-099BC,2026-07-22T07:09:40.298112,15.27579373,.00010436,43.0021,172.2595,275.1836,84.8897,0,U,57378,999,16786,.1744851E-4,.218E-5,0
STARLINK-6361,2023-099BD,2026-07-22T00:15:19.461024,15.27559675,.00008667,43.0014,199.5489,268.4260,91.6493,0,U,57379,999,16678,-.746508E-4,-.2314E-4,0
STARLINK-6366,2023-099BE,2026-07-22T07:15:13.289760,15.27579584,.00009125,43.0022,172.2797,262.6737,97.4011,0,U,57380,999,16785,.2338496E-5,-.198E-5,0
STARLINK-6371,2023-099BF,2026-07-22T07:04:06.534048,15.27567025,.00009989,43.0015,183.5166,283.4619,76.6122,0,U,57381,999,16773,.63492613E-4,.1485E-4,0
STARLINK-30240,2023-102A,2026-07-22T08:18:46.985760,15.27582346,.00021868,43.0028,208.1366,281.4296,78.6310,0,U,57404,999,16683,.1379537E-4,.117E-5,0
STARLINK-30195,2023-102C,2026-07-22T14:00:03.000384,15.74490341,.00018756,42.9993,206.1738,287.9251,134.0809,0,U,57406,999,564,.56372296E-2,.929179E-2,0
STARLINK-30207,2023-102D,2026-07-21T23:03:52.879680,15.27558478,.00012572,43.0029,195.7797,278.6187,81.4522,0,U,57407,999,16695,-.58688518E-4,-.1876E-4,0
STARLINK-30205,2023-102E,2026-07-22T08:49:04.198080,15.27722193,.00014011,43.0036,208.3067,286.3902,73.6796,0,U,57408,999,16683,.9765821E-4,.2437E-4,0
STARLINK-30222,2023-102F,2026-07-21T10:07:38.858592,15.27588145,.00008127,43.0010,213.2395,246.1239,113.9528,0,U,57409,999,16669,-.11117456E-3,-.3321E-4,0
STARLINK-30172,2023-102G,2026-07-22T00:07:51.741408,15.27584786,.00013952,43.0026,210.7258,287.2363,72.8336,0,U,57410,999,16677,.65144862E-4,.1531E-4,0
STARLINK-30214,2023-102H,2026-07-22T00:11:20.908896,15.27582544,.00017593,43.0047,209.9056,283.6475,76.4181,0,U,57411,999,16673,.6276506E-4,.1465E-4,0
STARLINK-30182,2023-102J,2026-07-22T09:49:14.562912,15.27578104,.00019176,43.0038,207.7521,278.5082,81.5552,0,U,57412,999,16684,.28451838E-4,.521E-5,0
STARLINK-30191,2023-102K,2026-07-21T20:03:59.291424,15.27589813,.00009221,43.0028,149.0623,283.8447,76.2302,0,U,57413,999,16748,.11475861E-3,.2898E-4,0
STARLINK-30193,2023-102L,2026-07-22T14:00:03.000384,15.54259742,.0001657,43.0007,198.6770,281.3649,57.3637,0,U,57414,999,591,.33311492E-2,.229444E-2,0
STARLINK-30208,2023-102M,2026-07-22T09:43:41.602368,15.27579081,.00011288,43.0025,207.7189,259.8656,100.2068,0,U,57415,999,16679,.31239982E-4,.598E-5,0
STARLINK-30224,2023-102N,2026-07-22T09:54:47.370528,15.27587653,.00015514,43.0031,207.7751,275.2910,84.7765,0,U,57416,999,16684,.72400109E-4,.1731E-4,0
STARLINK-30043,2023-102P,2026-07-22T09:56:38.197536,15.27581385,.00018249,43.0039,207.7866,279.1322,80.9323,0,U,57417,999,16684,.42058566E-4,.895E-5,0
STARLINK-30221,2023-102Q,2026-07-22T07:31:19.014528,15.27574918,.00017382,43.0009,215.5725,271.3245,88.7408,0,U,57418,999,16674,-.4188222E-5,-.377E-5,0
STARLINK-30188,2023-105C,2026-07-22T14:00:03.000384,15.61998278,.00012456,42.9994,217.0933,288.8029,23.5999,0,U,57432,999,586,.11474042E-1,.1141381E-1,0
STARLINK-30105,2023-105D,2026-07-22T10:32:12.585984,15.27578321,.00010837,43.0030,349.8421,268.6734,91.3994,0,U,57433,999,16893,.1431842E-5,-.223E-5,0
STARLINK-30102,2023-105E,2026-07-22T11:12:18.837216,15.27575207,.00011919,43.0006,218.7540,278.4681,81.6036,0,U,57434,999,16614,.70453E-4,.1677E-4,0
STARLINK-30158,2023-105J,2026-07-22T11:16:00.672672,15.27579179,.00014,43.0000,218.7725,267.3961,92.6731,0,U,57438,999,16619,.22572616E-4,.359E-5,0
