{"epoch":1784762836,"count":18316,"objects":[{"id":"57370","name":"STARLINK-5353","type":"PAYLOAD","l1":"1 57370U 23099AU  26203.42556480  .00000373  00000-0  23061-4 0  9991","l2":"2 57370  43.0000 200.9070 0000687 283.8404  76.2372 15.27588125166801"},{"id":"57371","name":"STARLINK-6032","type":"PAYLOAD","l1":"1 57371U 23099AV  26203.14604412  .00000486  00000-0  27178-4 0  9998","l2":"2 57371  43.0018 202.2560 0001062 275.2077  84.8654 15.27579058166767"},{"id":"57372","name":"STARLINK-5975","type":"PAYLOAD","l1":"1 57372U 23099AW  26203.37175291 -.00000201  00000-0  22150-5 0  9994","l2":"2 57372  43.0029 201.3518 0000899 258.6981 101.3770 15.27578771166797"},{"id":"57373","name":"STARLINK-6370","type":"PAYLOAD","l1":"1 57373U 23099AX  26202.97300944 -.00000723  00000-0 -16758-4 0  9991","l2":"2 57373  43.0016 203.5251 0001307 299.6590  60.4131 15.27578557166730"},{"id":"57374","name":"STARLINK-6369","type":"PAYLOAD","l1":"1 57374U 23099AY  26203.29837368  .00000711  00000-0  35375-4 0  9994","l2":"2 57374  43.0009 183.5567 0001105 271.0202  89.0523 15.27576015166997"},{"id":"57375","name":"STARLINK-6363","type":"PAYLOAD","l1":"1 57375U 23099AZ  26202.97172507  .00000529  00000-0  28724-4 0  9993","l2":"2 57375  43.0009 203.5189 0000973 273.7131  86.3609 15.27580460166739"},{"id":"57376","name":"STARLINK-6367","type":"PAYLOAD","l1":"1 57376U 23099BA  26203.27602564  .00019748  00000-0  72496-3 0  9996","l2":"2 57376  42.9950 198.1010 0000264 218.0335 142.0498 15.27592342166824"},{"id":"57377","name":"STARLINK-6358","type":"PAYLOAD","l1":"1 57377U 23099BB  26202.71611982  .00001704  00000-0  71404-4 0  9991","l2":"2 57377  43.0011 208.4687 0001056 282.6141  77.4593 15.27591812166640"},{"id":"57378","name":"STARLINK-6364","type":"PAYLOAD","l1":"1 57378U 23099BC  26203.29838308  .00000218  00000-0  17449-4 0  9997","l2":"2 57378  43.0021 172.2595 0001044 275.1836  84.8897 15.27579373167865"},{"id":"57379","name":"STARLINK-6361","type":"PAYLOAD","l1":"1 57379U 23099BD  26203.01064191 -.00002314  00000-0 -74651-4 0  9998","l2":"2 57379  43.0014 199.5489 0000867 268.4260  91.6493 15.27559675166781"},{"id":"57380","name":"STARLINK-6366","type":"PAYLOAD","l1":"1 57380U 23099BE  26203.30223715 -.00000198  00000-0  23385-5 0  9997","l2":"2 57380  43.0022 172.2797 0000913 262.6737  97.4011 15.27579584167859"},{"id":"57381","name":"STARLINK-6371","type":"PAYLOAD","l1":"1 57381U 23099BF  26203.29452007  .00001485  00000-0  63493-4 0  9996","l2":"2 57381  43.0015 183.5166 0000999 283.4619  76.6122 15.27567025167737"},{"id":"57404","name":"STARLINK-30240","type":"PAYLOAD","l1":"1 57404U 23102A   26203.34637715  .00000117  00000-0  13795-4 0  9995","l2":"2 57404  43.0028 208.1366 0002187 281.4296  78.6310 15.27582346166837"},{"id":"57406","name":"STARLINK-30195","type":"PAYLOAD","l1":"1 57406U 23102C   26203.58336806  .00929179  00000-0  56372-2 0  9994","l2":"2 57406  42.9993 206.1738 0001876 287.9251 134.0809 15.74490341  5641"},{"id":"57407","name":"STARLINK-30207","type":"PAYLOAD","l1":"1 57407U 23102D   26202.96102870 -.00001876  00000-0 -58689-4 0  9990","l2":"2 57407  43.0029 195.7797 0001257 278.6187  81.4522 15.27558478166953"},{"id":"57408","name":"STARLINK-30205","type":"PAYLOAD","l1":"1 57408U 23102E   26203.36740970  .00002437  00000-0  97658-4 0  9996","l2":"2 57408  43.0036 208.3067 0001401 286.3902  73.6796 15.27722193166835"},{"id":"57409","name":"STARLINK-30222","type":"PAYLOAD","l1":"1 57409U 23102F   26202.42197753 -.00003321  00000-0 -11117-3 0  9998","l2":"2 57409  43.0010 213.2395 0000813 246.1239 113.9528 15.27588145166692"},{"id":"57410","name":"STARLINK-30172","type":"PAYLOAD","l1":"1 57410U 23102G   26203.00545997  .00001531  00000-0  65145-4 0  9992","l2":"2 57410  43.0026 210.7258 0001395 287.2363  72.8336 15.27584786166777"},{"id":"57411","name":"STARLINK-30214","type":"PAYLOAD","l1":"1 57411U 23102H   26203.00788089  .00001465  00000-0  62765-4 0  9995","l2":"2 57411  43.0047 209.9056 0001759 283.6475  76.4181 15.27582544166739"},{"id":"57412","name":"STARLINK-30182","type":"PAYLOAD","l1":"1 57412U 23102J   26203.40919633  .00000521  00000-0  28452-4 0  9998","l2":"2 57412  43.0038 207.7521 0001918 278.5082  81.5552 15.27578104166845"},{"id":"57413","name":"STARLINK-30191","type":"PAYLOAD","l1":"1 57413U 23102K   26202.83610291  .00002898  00000-0  11476-3 0  9999","l2":"2 57413  43.0028 149.0623 0000922 283.8447  76.2302 15.27589813167488"},{"id":"57414","name":"STARLINK-30193","type":"PAYLOAD","l1":"1 57414U 23102L   26203.58336806  .00229444  00000-0  33311-2 0  9999","l2":"2 57414  43.0007 198.6770 0001657 281.3649  57.3637 15.54259742  5917"},{"id":"57415","name":"STARLINK-30208","type":"PAYLOAD","l1":"1 57415U 23102M   26203.40534262  .00000598  00000-0  31240-4 0  9995","l2":"2 57415  43.0025 207.7189 0001129 259.8656 100.2068 15.27579081166797"},{"id":"57416","name":"STARLINK-30224","type":"PAYLOAD","l1":"1 57416U 23102N   26203.41304827  .00001731  00000-0  72400-4 0  9992","l2":"2 57416  43.0031 207.7751 0001551 275.2910  84.7765 15.27587653166844"},{"id":"57417","name":"STARLINK-30043","type":"PAYLOAD","l1":"1 57417U 23102P   26203.41433099  .00000895  00000-0  42059-4 0  9994","l2":"2 57417  43.0039 207.7866 0001825 279.1322  80.9323 15.27581385166848"},{"id":"57418","name":"STARLINK-30221","type":"PAYLOAD","l1":"1 57418U 23102Q   26203.31341452 -.00000377  00000-0 -41882-5 0  9996","l2":"2 57418  43.0009 215.5725 0001738 271.3245  88.7408 15.27574918166741"},{"id":"57432","name":"STARLINK-30188","type":"PAYLOAD","l1":"1 57432U 23105C   26203.58336806  .01141381  00000-0  11474-1 0  9991","l2":"2 57432  42.9994 217.0933 0001246 288.8029  23.5999 15.61998278  5867"},{"id":"57433","name":"STARLINK-30105","type":"PAYLOAD","l1":"1 57433U 23105D   26203.43903456 -.00000223  00000-0  14318-5 0  9990","l2":"2 57433  43.0030 349.8421 0001084 268.6734  91.3994 15.27578321168937"},{"id":"57434","name":"STARLINK-30102","type":"PAYLOAD","l1":"1 57434U 23105E   26203.46688469  .00001677  00000-0  70453-4 0  9992","l2":"2 57434  43.0006 218.7540 0001192 278.4681  81.6036 15.27575207166147"},{"id":"57438","name":"STARLINK-30158","type":"PAYLOAD","l1":"1 57438U 23105J   26203.46945223  .00000359  00000-0  22573-4 0  9996","l2":"2 57438  43.0000 218.7725 0001400 267.3961  92.6731 15.27579179166191"}]}